LEMUR-2-ANDIS           
1 42838U 17042P   26068.55941107  .00023598  00000+0  79875-3 0  9998
2 42838  97.3659 249.7950 0009101   4.3248 355.8070 15.30557934473198
STARLINK-30783          
1 58130U 23162N   26068.21921962  .00009192  00000+0  34332-3 0  9993
2 58130  43.0004 131.8664 0000579  38.3391 321.7502 15.27561850132272
